NORAD_CAT_ID,OBJECT_NAME,OBJECT_TYPE,EPOCH,MEAN_MOTION,ECCENTRICITY,INCLINATION,RA_OF_ASC_NODE,ARG_OF_PERICENTER,MEAN_ANOMALY,BSTAR,MEAN_MOTION_DOT,MEAN_MOTION_DDOT,TLE_LINE0,TLE_LINE1,TLE_LINE2,SEMIMAJOR_AXIS,PERIOD,APOGEE,PERIGEE,DECAYED
53925.0,STARLINK-5011,PAYLOAD,2022-12-25 14:00:01,15.12017233,0.0001232,53.2164,166.5431,76.1764,299.7973,-0.057462,-0.00923493,0.0,0 STARLINK-5011,1 53925U 22119AR  22359.58334491 -.00923493  00000-0 -57462-1 0  9994,2 53925  53.2164 166.5431 0001232  76.1764 299.7973 15.12017233 14761,6908.186,95.237,530.9019999999998,529.2,0.0
53925.0,STARLINK-5011,PAYLOAD,2022-12-26 00:00:00,15.11198452,0.0001348,53.217,164.6659,79.661,44.9577,-0.05826,-0.0091576,0.0,0 STARLINK-5011,1 53925U 22119AR  22360.00001157 -.00915760  00000-0 -58260-1 0  9998,2 53925  53.2170 164.6659 0001348  79.6610  44.9577 15.11198452  1303,6910.681,95.289,533.477,531.614,0.0
53925.0,STARLINK-5011,PAYLOAD,2022-12-26 14:00:01,15.10079359,0.0001268,53.2164,162.0387,76.7805,341.8774,-0.062344,-0.00947334,0.0,0 STARLINK-5011,1 53925U 22119AR  22360.58334491 -.00947334  00000-0 -62344-1 0  9991,2 53925  53.2164 162.0387 0001268  76.7805 341.8774 15.10079359 14913,6914.095,95.359,536.836,535.0830000000002,0.0
53925.0,STARLINK-5011,PAYLOAD,2022-12-26 22:00:00,15.093056,0.0001213,53.2164,160.5418,90.529,340.8157,-0.033916,-0.00514771,0.0,0 STARLINK-5011,1 53925U 22119AR  22360.91667824 -.00514771  00000-0 -33916-1 0  9995,2 53925  53.2164 160.5418 0001213  90.5290 340.8157 15.09305600 14961,6916.458000000001,95.408,539.1619999999998,537.484,0.0
53925.0,STARLINK-5011,PAYLOAD,2022-12-27 00:00:00,15.09172008,0.0001211,53.2168,160.1671,90.0118,74.3689,-0.027476,-0.00416711,0.0,0 STARLINK-5011,1 53925U 22119AR  22361.00001157 -.00416711  00000-0 -27476-1 0  9996,2 53925  53.2168 160.1671 0001211  90.0118  74.3689 15.09172008  1301,6916.866,95.417,539.568,537.893,0.0
53925.0,STARLINK-5011,PAYLOAD,2022-12-27 06:00:00,15.08933098,0.0001539,53.2141,159.0427,78.7561,4.4872,-0.0089363999999999,-0.00140114,0.0,0 STARLINK-5011,1 53925U 22119AR  22361.25001157 -.00140114  00000-0 -89364-2 0  9999,2 53925  53.2141 159.0427 0001539  78.7561   4.4872 15.08933098 15010,6917.596,95.432,540.525,538.396,0.0
53925.0,STARLINK-5011,PAYLOAD,2022-12-27 14:00:01,15.08896086,0.0001547,53.2121,157.5458,80.7345,14.1587,-0.0042725,-0.0006775,0.0,0 STARLINK-5011,1 53925U 22119AR  22361.58334491 -.00067750  00000-0 -42725-2 0  9999,2 53925  53.2121 157.5458 0001547  80.7345  14.1587 15.08896086 15068,6917.709,95.434,540.644,538.504,0.0
53925.0,STARLINK-5011,PAYLOAD,2022-12-27 22:00:00,15.0880948,0.000153,53.213,156.0503,69.3321,37.1851,0.0032113,0.00051148,0.0,0 STARLINK-5011,1 53925U 22119AR  22361.91667824  .00051148  00000-0  32113-2 0  9997,2 53925  53.2130 156.0503 0001530  69.3321  37.1851 15.08809480  1305,6917.974,95.439,540.8969999999998,538.78,0.0
53925.0,STARLINK-5011,PAYLOAD,2022-12-28 06:00:00,15.08817599,0.0001421,53.2138,154.5521,77.0665,41.0358,0.0024223,0.0003845,0.0,0 STARLINK-5011,1 53925U 22119AR  22362.25001157  .00038450  00000-0  24223-2 0  9990,2 53925  53.2138 154.5521 0001421  77.0665  41.0358 15.08817599 15167,6917.949000000001,95.439,540.797,538.831,0.0
53925.0,STARLINK-5011,PAYLOAD,2022-12-28 14:00:01,15.08866278,0.0001483,53.2139,153.0564,75.0718,54.6108,-0.0044281999999999,-0.00070127,0.0,0 STARLINK-5011,1 53925U 22119AR  22362.58334491 -.00070127  00000-0 -44282-2 0  9992,2 53925  53.2139 153.0564 0001483  75.0718  54.6108 15.08866278  1306,6917.8,95.436,540.691,538.639,0.0
53925.0,STARLINK-5011,PAYLOAD,2022-12-28 22:00:00,15.08805954,0.0001452,53.2138,151.561,65.5486,75.7326,0.0025504,0.00040497,0.0,0 STARLINK-5011,1 53925U 22119AR  22362.91667824  .00040497  00000-0  25504-2 0  9999,2 53925  53.2138 151.5610 0001452  65.5486  75.7326 15.08805954 15262,6917.984,95.44,540.854,538.845,0.0
53925.0,STARLINK-5011,PAYLOAD,2022-12-29 14:00:01,15.08849541,0.0001458,53.2142,148.5672,71.5742,92.8589,-0.0013719,-0.00022061,0.0,0 STARLINK-5011,1 53925U 22119AR  22363.58334491 -.00022061  00000-0 -13719-2 0  9998,2 53925  53.2142 148.5672 0001458  71.5742  92.8589 15.08849541 15361,6917.851,95.437,540.725,538.7080000000002,0.0
53925.0,STARLINK-5011,PAYLOAD,2022-12-30 06:00:00,15.08824947,0.000145,53.2142,145.5734,73.046,114.6037,0.0013907,0.00021905,0.0,0 STARLINK-5011,1 53925U 22119AR  22364.25001157  .00021905  00000-0  13907-2 0  9996,2 53925  53.2142 145.5734 0001450  73.0460 114.6037 15.08824947 15468,6917.926,95.439,540.794,538.788,0.0
53925.0,STARLINK-5011,PAYLOAD,2022-12-30 14:00:01,15.08852828,0.0001583,53.2144,144.0779,70.7148,128.5232,-0.0008332,-0.00013529,0.0,0 STARLINK-5011,1 53925U 22119AR  22364.58334491 -.00013529  00000-0 -83320-3 0  9994,2 53925  53.2144 144.0779 0001583  70.7148 128.5232 15.08852828  1305,6917.840999999999,95.437,540.8009999999998,538.611,0.0
53925.0,STARLINK-5011,PAYLOAD,2022-12-31 09:47:15,15.08847223,0.0001425,53.2151,140.3761,71.4927,288.622,0.00012036,1.628e-05,0.0,0 STARLINK-5011,1 53925U 22119AR  22365.40781574  .00001628  00000-0  12036-3 0  9995,2 53925  53.2151 140.3761 0001425  71.4927 288.6220 15.08847223 15641,6917.858,95.437,540.7090000000002,538.738,0.0
53925.0,STARLINK-5011,PAYLOAD,2022-12-31 12:58:01,15.08845991,0.0001404,53.2152,139.7812,70.7405,289.3739,0.00010493,1.383e-05,0.0,0 STARLINK-5011,1 53925U 22119AR  22365.54029659  .00001383  00000-0  10493-3 0  9992,2 53925  53.2152 139.7812 0001404  70.7405 289.3739 15.08845991 16083,6917.861999999999,95.437,540.698,538.756,0.0
53925.0,STARLINK-5011,PAYLOAD,2022-12-31 16:08:47,15.08847191,0.0001409999999999,53.2151,139.1867,70.6462,289.4683,0.00011427,1.531e-05,0.0,0 STARLINK-5011,1 53925U 22119AR  22365.67277516  .00001531  00000-0  11427-3 0  9996,2 53925  53.2151 139.1867 0001410  70.6462 289.4683 15.08847191 16101,6917.858,95.437,540.6990000000002,538.748,0.0
53925.0,STARLINK-5011,PAYLOAD,2023-01-01 01:41:07,15.08840591,0.0001450999999999,53.2153,137.4019,65.6431,294.4712,8.3326e-06,-1.55e-06,0.0,0 STARLINK-5011,1 53925U 22119AR  23001.07022150 -.00000155  00000-0  83326-5 0  9991,2 53925  53.2153 137.4019 0001451  65.6431 294.4712 15.08840591 15743,6917.879,95.438,540.747,538.74,0.0
53925.0,STARLINK-5011,PAYLOAD,2023-01-01 11:13:26,15.08833647,0.000145,53.215,135.6186,70.0065,290.1083,-5.8338e-05,-1.216e-05,0.0,0 STARLINK-5011,1 53925U 22119AR  23001.46766816 -.00001216  00000-0 -58338-4 0  9992,2 53925  53.2150 135.6186 0001450  70.0065 290.1083 15.08833647 15802,6917.9,95.438,540.768,538.762,0.0
53925.0,STARLINK-5011,PAYLOAD,2023-01-01 19:10:23,15.08824386,0.0001525,53.2158,134.1309,66.1171,293.9981,-0.00012695,-2.307e-05,0.0,0 STARLINK-5011,1 53925U 22119AR  23001.79887796 -.00002307  00000-0 -12695-3 0  9996,2 53925  53.2158 134.1309 0001525  66.1171 293.9981 15.08824386 15851,6917.928000000001,95.439,540.8480000000002,538.738,0.0
53925.0,STARLINK-5011,PAYLOAD,2023-01-02 11:04:13,15.0883637,0.0001495,53.2156,131.1576,66.5754,293.5396,-3.9752e-05,-9.21e-06,0.0,0 STARLINK-5011,1 53925U 22119AR  23002.46127127 -.00000921  00000-0 -39752-4 0  9990,2 53925  53.2156 131.1576 0001495  66.5754 293.5396 15.08836370 15952,6917.891,95.438,540.7909999999998,538.722,0.0
53925.0,STARLINK-5011,PAYLOAD,2023-01-02 15:50:23,15.0883832,0.000151,53.2156,130.2655,66.6369,293.4782,2.6748e-06,-2.45e-06,0.0,0 STARLINK-5011,1 53925U 22119AR  23002.65998906 -.00000245  00000-0  26748-5 0  9992,2 53925  53.2156 130.2655 0001510  66.6369 293.4782 15.08838320 16407,6917.886,95.438,540.795,538.706,0.0
53925.0,STARLINK-5011,PAYLOAD,2023-01-03 07:44:14,15.08835765,0.0001515,53.2156,127.2919,67.4074,292.7078,0.00014415,2.007e-05,0.0,0 STARLINK-5011,1 53925U 22119AR  23003.32238957  .00002007  00000-0  14415-3 0  9993,2 53925  53.2156 127.2919 0001515  67.4074 292.7078 15.08835765 16504,6917.893,95.438,540.806,538.71,0.0
53925.0,STARLINK-5011,PAYLOAD,2023-01-03 12:30:23,15.08835674,0.0001543,53.2157,126.3996,67.2525,292.863,0.00013798,1.908e-05,0.0,0 STARLINK-5011,1 53925U 22119AR  23003.52111045  .00001908  00000-0  13798-3 0  9995,2 53925  53.2157 126.3996 0001543  67.2525 292.8630 15.08835674 16111,6917.894,95.438,540.826,538.691,0.0
53925.0,STARLINK-5011,PAYLOAD,2023-01-04 13:56:34,15.08842159,0.0001689,53.2156,121.6418,66.9348,293.1822,0.00014485,2.018e-05,0.0,0 STARLINK-5011,1 53925U 22119AR  23004.58095028  .00002018  00000-0  14485-3 0  9991,2 53925  53.2156 121.6418 0001689  66.9348 293.1822 15.08842159 16277,6917.874,95.437,540.9069999999998,538.57,0.0
53925.0,STARLINK-5011,PAYLOAD,2023-01-05 01:04:15,15.08855785,0.0001483,53.2155,119.5598,73.2627,286.8528,0.00016115,2.279e-05,0.0,0 STARLINK-5011,1 53925U 22119AR  23005.04461814  .00002279  00000-0  16115-3 0  9994,2 53925  53.2155 119.5598 0001483  73.2627 286.8528 15.08855785 16343,6917.831999999999,95.437,540.7230000000002,538.6709999999998,0.0
53925.0,STARLINK-5011,PAYLOAD,2023-01-05 13:47:19,15.08862852,0.0001471,53.2149,117.1815,56.1552,303.958,0.00029511,4.415e-05,0.0,0 STARLINK-5011,1 53925U 22119AR  23005.57453243  .00004415  00000-0  29511-3 0  9997,2 53925  53.2149 117.1815 0001471  56.1552 303.9580 15.08862852 16843,6917.811,95.436,540.693,538.658,0.0
53925.0,STARLINK-5011,PAYLOAD,2023-01-06 16:48:54,15.08833487,0.0001153,53.2149,112.1268,41.3895,318.7184,-0.00023479,-4.022e-05,0.0,0 STARLINK-5011,1 53925U 22119AR  23006.70062727 -.00004022  00000-0 -23479-3 0  9999,2 53925  53.2149 112.1268 0001153  41.3895 318.7184 15.08833487 16591,6917.9,95.438,540.563,538.9680000000002,0.0
53925.0,STARLINK-5011,PAYLOAD,2023-01-07 05:31:59,15.0883764,0.0001091,53.2152,109.7468,35.3133,324.7931,-0.00010283,-1.924e-05,0.0,0 STARLINK-5011,1 53925U 22119AR  23007.23054696 -.00001924  00000-0 -10283-3 0  9991,2 53925  53.2152 109.7468 0001091  35.3133 324.7931 15.08837640 17096,6917.888000000001,95.438,540.507,538.998,0.0
